<?xml version="1.0" encoding="UTF-8"?>
<gpx xmlns="http://www.topografix.com/GPX/1/1" version="1.1" creator="fake">
  <metadata><time>2026-02-07T09:10:00Z</time></metadata>
  <trk>
    <type>walking</type>
    <trkseg>
    <trkpt lat="0.000" lon="0.0">
      <ele>30</ele><time>2026-02-07T09:10:00Z</time>
    </trkpt>
    <trkpt lat="0.009" lon="0.0">
      <ele>34</ele><time>2026-02-07T09:22:30Z</time>
    </trkpt>
    <trkpt lat="0.018" lon="0.0">
      <ele>38</ele><time>2026-02-07T09:35:00Z</time>
    </trkpt>
    <trkpt lat="0.027" lon="0.0">
      <ele>33</ele><time>2026-02-07T09:47:30Z</time>
    </trkpt>
    <trkpt lat="0.036" lon="0.0">
      <ele>31</ele><time>2026-02-07T10:00:00Z</time>
    </trkpt>
    </trkseg>
  </trk>
</gpx>
